[
{
  "model": "website.satellite",
  "pk": 1,
  "fields": {
    "name": "ISS",
    "norad_id": 25544,
    "description": "International Space Station",
    "owner": null
  }
},
{
  "model": "website.satellite",
  "pk": 2,
  "fields": {
    "name": "Milanesat",
    "norad_id": 42760,
    "description": "Milanesat",
    "owner": 1
  }
},
{
  "model": "website.tle",
  "pk": 1,
  "fields": {
    "satellite": 1,
    "at": "2019-03-05T23:39:50Z",
    "lines": "1 25544U 98067A   19065.11099337  .00003087  00000-0  56425-4 0  9998\r\n2 25544  51.6415 153.7071 0003932  80.7085 347.8970 15.52784099159242"
  }
},
{
  "model": "website.tle",
  "pk": 2,
  "fields": {
    "satellite": 2,
    "at": "2019-03-11T19:26:00Z",
    "lines": "1 42760U 17034C   19070.46618549  .00000282  00000-0  30543-4 0  9995\r\n2 42760  43.0166  56.1509 0009676 356.3576 146.0151 15.09909885 95848"
  }
},
{
  "model": "website.location",
  "pk": 1,
  "fields": {
    "owner": null,
    "name": "UTN Los Reyunos",
    "latitude": -34.596123,
    "longitude": -68.642255,
    "elevation": 1036.0
  }
}
]
